start=new Date('2023-06-24T00:00:00.000Z').valueOf();
sats=[{"COUNTRY_CODE":"US","DECAY_DATE":null,"CENTER_NAME":"EARTH","SITE":"AFETR","OBJECT_NAME":"STARLINK-2132","ECCENTRICITY":"0.00010800","TIME_SYSTEM":"UTC","ELEMENT_SET_NO":"999","SEMIMAJOR_AXIS":"6925.327","INCLINATION":"53.0538","MEAN_MOTION":"15.06407013","PERIOD":"95.592","MEAN_ANOMALY":"244.9568","REV_AT_EPOCH":"12869","OBJECT_TYPE":"PAYLOAD","BSTAR":"0.00191230000000","ARG_OF_PERICENTER":"115.1533","RA_OF_ASC_NODE":"274.3089","MEAN_MOTION_DOT":"0.00028322","NORAD_CAT_ID":"47729","RCS_SIZE":"LARGE","TLE_LINE1":"1 47729U 21017H   23173.97610762  .00028322  00000-0  19123-2 0  9999","EPHEMERIS_TYPE":"0","MEAN_ELEMENT_THEORY":"SGP4","CLASSIFICATION_TYPE":"U","EPOCH":"2023-06-22T23:25:35.698368","REF_FRAME":"TEME","LAUNCH_DATE":"2021-03-04","PERIAPSIS":"546.444","GP_ID":"234494962","OBJECT_ID":"2021-017H","MEAN_MOTION_DDOT":"0.0000000000000","TLE_LINE2":"2 47729  53.0538 274.3089 0001080 115.1533 244.9568 15.06407013128697","FILE":"3940370","APOAPSIS":"547.940"},{"NORAD_CAT_ID":"47730","MEAN_MOTION_DOT":"0.00023798","ARG_OF_PERICENTER":"67.8293","RA_OF_ASC_NODE":"345.0403","EPOCH":"2023-06-22T18:29:39.294816","TLE_LINE1":"1 47730U 21017J   23173.77059369  .00023798  00000-0  16121-2 0  9996","EPHEMERIS_TYPE":"0","MEAN_ELEMENT_THEORY":"SGP4","CLASSIFICATION_TYPE":"U","RCS_SIZE":"LARGE","GP_ID":"234461714","PERIAPSIS":"546.510","LAUNCH_DATE":"2021-03-04","REF_FRAME":"TEME","TLE_LINE2":"2 47730  53.0545 345.0403 0001115  67.8293 292.2814 15.06377479127677","APOAPSIS":"548.055","FILE":"3940084","OBJECT_ID":"2021-017J","MEAN_MOTION_DDOT":"0.0000000000000","DECAY_DATE":null,"CENTER_NAME":"EARTH","COUNTRY_CODE":"US","TIME_SYSTEM":"UTC","OBJECT_NAME":"STARLINK-2140","ECCENTRICITY":"0.00011150","SITE":"AFETR","REV_AT_EPOCH":"12767","PERIOD":"95.594","MEAN_ANOMALY":"292.2814","ELEMENT_SET_NO":"999","SEMIMAJOR_AXIS":"6925.418","INCLINATION":"53.0545","MEAN_MOTION":"15.06377479","BSTAR":"0.00161210000000","OBJECT_TYPE":"PAYLOAD"},{"REF_FRAME":"TEME","GP_ID":"234508189","LAUNCH_DATE":"2021-03-04","PERIAPSIS":"546.406","TLE_LINE2":"2 47731  53.0551 335.5313 0001043  60.1240 299.9853 15.06427925127890","APOAPSIS":"547.850","FILE":"3940939","OBJECT_ID":"2021-017K","MEAN_MOTION_DDOT":"0.0000000000000","RA_OF_ASC_NODE":"335.5313","ARG_OF_PERICENTER":"60.1240","NORAD_CAT_ID":"47731","MEAN_MOTION_DOT":"0.00028454","TLE_LINE1":"1 47731U 21017K   23174.77178116  .00028454  00000-0  19200-2 0  9995","MEAN_ELEMENT_THEORY":"SGP4","EPHEMERIS_TYPE":"0","CLASSIFICATION_TYPE":"U","RCS_SIZE":"LARGE","EPOCH":"2023-06-23T18:31:21.892224","MEAN_MOTION":"15.06427925","SEMIMAJOR_AXIS":"6925.263","ELEMENT_SET_NO":"999","INCLINATION":"53.0551","REV_AT_EPOCH":"12789","MEAN_ANOMALY":"299.9853","PERIOD":"95.590","BSTAR":"0.00192000000000","OBJECT_TYPE":"PAYLOAD","DECAY_DATE":null,"CENTER_NAME":"EARTH","COUNTRY_CODE":"US","SITE":"AFETR","TIME_SYSTEM":"UTC","OBJECT_NAME":"STARLINK-2141","ECCENTRICITY":"0.00010430"},{"MEAN_MOTION":"15.06427558","SEMIMAJOR_AXIS":"6925.264","ELEMENT_SET_NO":"999","INCLINATION":"53.0533","REV_AT_EPOCH":"12903","MEAN_ANOMALY":"254.5650","PERIOD":"95.590","BSTAR":"0.00163660000000","OBJECT_TYPE":"PAYLOAD","DECAY_DATE":null,"CENTER_NAME":"EARTH","COUNTRY_CODE":"US","SITE":"AFETR","TIME_SYSTEM":"UTC","OBJECT_NAME":"STARLINK-2142","ECCENTRICITY":"0.00009690","REF_FRAME":"TEME","GP_ID":"234501374","PERIAPSIS":"546.458","LAUNCH_DATE":"2021-03-04","TLE_LINE2":"2 47732  53.0533 252.0884 0000969 105.5446 254.5650 15.06427558129037","FILE":"3940641","APOAPSIS":"547.800","OBJECT_ID":"2021-017L","MEAN_MOTION_DDOT":"0.0000000000000","ARG_OF_PERICENTER":"105.5446","RA_OF_ASC_NODE":"252.0884","NORAD_CAT_ID":"47732","MEAN_MOTION_DOT":"0.00024198","MEAN_ELEMENT_THEORY":"SGP4","TLE_LINE1":"1 47732U 21017L   23174.47923811  .00024198  00000-0  16366-2 0  9994","EPHEMERIS_TYPE":"0","CLASSIFICATION_TYPE":"U","RCS_SIZE":"LARGE","EPOCH":"2023-06-23T11:30:06.172704"},{"CENTER_NAME":"EARTH","DECAY_DATE":null,"COUNTRY_CODE":"US","TIME_SYSTEM":"UTC","ECCENTRICITY":"0.00009130","OBJECT_NAME":"STARLINK-2143","SITE":"AFETR","REV_AT_EPOCH":"12775","PERIOD":"95.590","MEAN_ANOMALY":"270.9658","SEMIMAJOR_AXIS":"6925.244","ELEMENT_SET_NO":"999","INCLINATION":"53.0555","MEAN_MOTION":"15.06434174","BSTAR":"0.00189730000000","OBJECT_TYPE":"PAYLOAD","MEAN_MOTION_DOT":"0.00028118","NORAD_CAT_ID":"47733","RA_OF_ASC_NODE":"345.5887","ARG_OF_PERICENTER":"89.1436","EPOCH":"2023-06-23T18:14:06.669024","CLASSIFICATION_TYPE":"U","TLE_LINE1":"1 47733U 21017M   23174.75979941  .00028118  00000-0  18973-2 0  9993","EPHEMERIS_TYPE":"0","MEAN_ELEMENT_THEORY":"SGP4","RCS_SIZE":"LARGE","GP_ID":"234508695","PERIAPSIS":"546.477","LAUNCH_DATE":"2021-03-04","REF_FRAME":"TEME","FILE":"3940940","APOAPSIS":"547.741","TLE_LINE2":"2 47733  53.0555 345.5887 0000913  89.1436 270.9658 15.06434174127757","MEAN_MOTION_DDOT":"0.0000000000000","OBJECT_ID":"2021-017M"},{"REV_AT_EPOCH":"12774","PERIOD":"95.593","MEAN_ANOMALY":"301.2703","SEMIMAJOR_AXIS":"6925.407","INCLINATION":"53.0551","ELEMENT_SET_NO":"999","MEAN_MOTION":"15.06381008","BSTAR":"0.00160240000000","OBJECT_TYPE":"PAYLOAD","DECAY_DATE":null,"CENTER_NAME":"EARTH","COUNTRY_CODE":"US","TIME_SYSTEM":"UTC","OBJECT_NAME":"STARLINK-2144","ECCENTRICITY":"0.00007470","SITE":"AFETR","GP_ID":"234461736","PERIAPSIS":"546.754","LAUNCH_DATE":"2021-03-04","REF_FRAME":"TEME","TLE_LINE2":"2 47734  53.0551 339.9651 0000747  58.8360 301.2703 15.06381008127749","APOAPSIS":"547.789","FILE":"3940088","OBJECT_ID":"2021-017N","MEAN_MOTION_DDOT":"0.0000000000000","NORAD_CAT_ID":"47734","MEAN_MOTION_DOT":"0.00023654","RA_OF_ASC_NODE":"339.9651","ARG_OF_PERICENTER":"58.8360","EPOCH":"2023-06-22T18:48:53.279136","TLE_LINE1":"1 47734U 21017N   23173.78394999  .00023654  00000-0  16024-2 0  9995","MEAN_ELEMENT_THEORY":"SGP4","EPHEMERIS_TYPE":"0","CLASSIFICATION_TYPE":"U","RCS_SIZE":"LARGE"},{"NORAD_CAT_ID":"47735","MEAN_MOTION_DOT":"0.00027030","RA_OF_ASC_NODE":"261.4860","ARG_OF_PERICENTER":"82.1116","EPOCH":"2023-06-23T14:18:36.932256","RCS_SIZE":"LARGE","CLASSIFICATION_TYPE":"U","EPHEMERIS_TYPE":"0","TLE_LINE1":"1 47735U 21017P   23174.59626079  .00027030  00000-0  18250-2 0  9998","MEAN_ELEMENT_THEORY":"SGP4","PERIAPSIS":"546.293","LAUNCH_DATE":"2021-03-04","GP_ID":"234508988","REF_FRAME":"TEME","MEAN_MOTION_DDOT":"0.0000000000000","OBJECT_ID":"2021-017P","FILE":"3940940","APOAPSIS":"547.936","TLE_LINE2":"2 47735  53.0542 261.4860 0001186  82.1116 278.0008 15.06432243128915","COUNTRY_CODE":"US","CENTER_NAME":"EARTH","DECAY_DATE":null,"ECCENTRICITY":"0.00011860","OBJECT_NAME":"STARLINK-2146","TIME_SYSTEM":"UTC","SITE":"AFETR","MEAN_ANOMALY":"278.0008","PERIOD":"95.590","REV_AT_EPOCH":"12891","SEMIMAJOR_AXIS":"6925.250","MEAN_MOTION":"15.06432243","ELEMENT_SET_NO":"999","INCLINATION":"53.0542","OBJECT_TYPE":"PAYLOAD","BSTAR":"0.00182500000000"},{"REF_FRAME":"TEME","GP_ID":"234461425","PERIAPSIS":"546.644","LAUNCH_DATE":"2021-03-04","FILE":"3940088","APOAPSIS":"547.920","TLE_LINE2":"2 47736  53.0546 330.1108 0000921 113.8749 246.2337 15.06377580127888","MEAN_MOTION_DDOT":"0.0000000000000","OBJECT_ID":"2021-017Q","ARG_OF_PERICENTER":"113.8749","RA_OF_ASC_NODE":"330.1108","MEAN_MOTION_DOT":"0.00024382","NORAD_CAT_ID":"47736","CLASSIFICATION_TYPE":"U","EPHEMERIS_TYPE":"0","TLE_LINE1":"1 47736U 21017Q   23173.75169802  .00024382  00000-0  16511-2 0  9997","MEAN_ELEMENT_THEORY":"SGP4","RCS_SIZE":"LARGE","EPOCH":"2023-06-22T18:02:26.708928","ELEMENT_SET_NO":"999","SEMIMAJOR_AXIS":"6925.417","MEAN_MOTION":"15.06377580","INCLINATION":"53.0546","REV_AT_EPOCH":"12788","PERIOD":"95.594","MEAN_ANOMALY":"246.2337","BSTAR":"0.00165110000000","OBJECT_TYPE":"PAYLOAD","CENTER_NAME":"EARTH","DECAY_DATE":null,"COUNTRY_CODE":"US","SITE":"AFETR","TIME_SYSTEM":"UTC","ECCENTRICITY":"0.00009210","OBJECT_NAME":"STARLINK-2147"},{"ARG_OF_PERICENTER":"89.9512","RA_OF_ASC_NODE":"170.3302","NORAD_CAT_ID":"47737","MEAN_MOTION_DOT":"-0.00000645","RCS_SIZE":"LARGE","CLASSIFICATION_TYPE":"U","MEAN_ELEMENT_THEORY":"SGP4","TLE_LINE1":"1 47737U 21017R   23174.70722651 -.00000645  00000-0 -74425-5 0  9990","EPHEMERIS_TYPE":"0","EPOCH":"2023-06-23T16:58:24.370464","REF_FRAME":"TEME","PERIAPSIS":"457.863","LAUNCH_DATE":"2021-03-04","GP_ID":"234508983","MEAN_MOTION_DDOT":"0.0000000000000","OBJECT_ID":"2021-017R","FILE":"3940940","APOAPSIS":"459.609","TLE_LINE2":"2 47737  53.0539 170.3302 0001277  89.9512 270.1636 15.35736338130229","COUNTRY_CODE":"US","CENTER_NAME":"EARTH","DECAY_DATE":null,"SITE":"AFETR","ECCENTRICITY":"0.00012770","OBJECT_NAME":"STARLINK-2148","TIME_SYSTEM":"UTC","INCLINATION":"53.0539","SEMIMAJOR_AXIS":"6836.871","ELEMENT_SET_NO":"999","MEAN_MOTION":"15.35736338","MEAN_ANOMALY":"270.1636","PERIOD":"93.766","REV_AT_EPOCH":"13022","OBJECT_TYPE":"PAYLOAD","BSTAR":"-0.00000744250000"},{"TLE_LINE2":"2 47738  53.0546 330.5014 0001026  70.0795 290.0304 15.06376033127874","FILE":"3940089","APOAPSIS":"547.998","OBJECT_ID":"2021-017S","MEAN_MOTION_DDOT":"0.0000000000000","REF_FRAME":"TEME","GP_ID":"234461434","LAUNCH_DATE":"2021-03-04","PERIAPSIS":"546.576","TLE_LINE1":"1 47738U 21017S   23173.72593439  .00019324  00000-0  13135-2 0  9992","MEAN_ELEMENT_THEORY":"SGP4","EPHEMERIS_TYPE":"0","CLASSIFICATION_TYPE":"U","RCS_SIZE":"LARGE","EPOCH":"2023-06-22T17:25:20.731296","RA_OF_ASC_NODE":"330.5014","ARG_OF_PERICENTER":"70.0795","NORAD_CAT_ID":"47738","MEAN_MOTION_DOT":"0.00019324","BSTAR":"0.00131350000000","OBJECT_TYPE":"PAYLOAD","SEMIMAJOR_AXIS":"6925.422","MEAN_MOTION":"15.06376033","ELEMENT_SET_NO":"999","INCLINATION":"53.0546","REV_AT_EPOCH":"12787","MEAN_ANOMALY":"290.0304","PERIOD":"95.594","SITE":"AFETR","TIME_SYSTEM":"UTC","OBJECT_NAME":"STARLINK-2149","ECCENTRICITY":"0.00010260","DECAY_DATE":null,"CENTER_NAME":"EARTH","COUNTRY_CODE":"US"}];
